LIZZIESAT-2 (LS-2)      
1 62383U 24247G   26068.49140277  .00009388  00000+0  34517-3 0  9997
2 62383  44.9909 117.0823 0004092 327.5136  32.5495 15.28222796 67716
STARLINK-35004          
1 65428U 25192AA  26068.70759063  .00013000  00000+0  45041-3 0  9993
2 65428  53.1586 232.4959 0001299  99.7112 260.4035 15.30190780 29385
